{
    "links": {
        "self": "http://www.neowsapp.com/rest/v1/neo/3393816?api_key=iIulBulltgU6a56xZRHN4H3l9WmuAYTsLGpBGhQ2"
    },
    "id": "3393816",
    "neo_reference_id": "3393816",
    "name": "(2007 VT83)",
    "designation": "2007 VT83",
    "nasa_jpl_url": "http://ssd.jpl.nasa.gov/sbdb.cgi?sstr=3393816",
    "absolute_magnitude_h": 24.3,
    "estimated_diameter": {
        "kilometers": {
            "estimated_diameter_min": 0.0366906138,
            "estimated_diameter_max": 0.0820427065
        },
        "meters": {
            "estimated_diameter_min": 36.6906137531,
            "estimated_diameter_max": 82.0427064882
        },
        "miles": {
            "estimated_diameter_min": 0.0227984834,
            "estimated_diameter_max": 0.0509789586
        },
        "feet": {
            "estimated_diameter_min": 120.3760332259,
            "estimated_diameter_max": 269.1689931548
        }
    },
    "is_potentially_hazardous_asteroid": false,
    "close_approach_data": [
        {
            "close_approach_date": "2007-10-20",
            "close_approach_date_full": "2007-Oct-20 17:54",
            "epoch_date_close_approach": 1192902840000,
            "relative_velocity": {
                "kilometers_per_second": "9.7468543752",
                "kilometers_per_hour": "35088.6757508101",
                "miles_per_hour": "21802.7385519409"
            },
            "miss_distance": {
                "astronomical": "0.0687726913",
                "lunar": "26.7525769157",
                "kilometers": "10288248.132647531",
                "miles": "6392820.9505806878"
            },
            "orbiting_body": "Earth"
        }
    ],
    "orbital_data": {
        "orbit_id": "6",
        "orbit_determination_date": "2017-04-06 09:05:19",
        "first_observation_date": "2007-11-07",
        "last_observation_date": "2007-11-08",
        "data_arc_in_days": 1,
        "observations_used": 17,
        "orbit_uncertainty": "9",
        "minimum_orbit_intersection": ".0377535",
        "jupiter_tisserand_invariant": "4.932",
        "epoch_osculation": "2454412.5",
        "eccentricity": ".2958938728756202",
        "semi_major_axis": "1.306866583720068",
        "inclination": "6.923595043709817",
        "ascending_node_longitude": "38.34105210200731",
        "orbital_period": "545.6891350098771",
        "perihelion_distance": ".9201727689314063",
        "perihelion_argument": "290.3256715922437",
        "aphelion_distance": "1.69356039850873",
        "perihelion_time": "2454347.939643910611",
        "mean_anomaly": "42.5915172230053",
        "mean_motion": ".6597162686654626",
        "equinox": "J2000",
        "orbit_class": {
            "orbit_class_type": "APO",
            "orbit_class_description": "Near-Earth asteroid orbits which cross the Earth’s orbit similar to that of 1862 Apollo",
            "orbit_class_range": "a (semi-major axis) > 1.0 AU; q (perihelion) < 1.017 AU"
        }
    },
    "is_sentry_object": false
}